#cP2023 10 10  0  0  0.00000000      96 ORBIT IGS20 HLM  IGS
## 2283 172800.00000000   900.00000000 60227 0.0000000000000
+   32   G01G02G03G04G05G06G07G08G09G10G11G12G13G14G15G16G17
+        G18G19G20G21G22G23G24G25G26G27G28G29G30G31G32  0  0
+          0  0  0  0  0  0  0  0  0  0  0  0  0  0  0  0  0
+          0  0  0  0  0  0  0  0  0  0  0  0  0  0  0  0  0
+          0  0  0  0  0  0  0  0  0  0  0  0  0  0  0  0  0
++         3  2  2  2  2  2  2  1  2  2  3  2  2  2  2  2  2
++         2  2  2  2  2  2  2  2  2  2  2  2  2  2  2  0  0
++         0  0  0  0  0  0  0  0  0  0  0  0  0  0  0  0  0
++         0  0  0  0  0  0  0  0  0  0  0  0  0  0  0  0  0
++         0  0  0  0  0  0  0  0  0  0  0  0  0  0  0  0  0
%c G  cc GPS ccc cccc cccc cccc cccc ccccc ccccc ccccc ccccc
%c cc cc ccc ccc cccc cccc cccc cccc ccccc ccccc ccccc ccccc
%f  1.2500000  1.025000000  0.00000000000  0.000000000000000
%f  0.0000000  0.000000000  0.00000000000  0.000000000000000
%i    0    0    0    0      0      0      0      0         0
%i    0    0    0    0      0      0      0      0         0
/* RAPID ORBIT COMBINATION FROM WEIGHTED AVERAGE OF:        
/* cod emr esa gfz grg jgx jpl ngs sio usn whu              
/* REFERENCED TO IGS TIME (IGST) AND TO WEIGHTED MEAN POLE: 
/* PCV:IGS20      OL/AL:FES2014b NONE     Y  ORB:CMB CLK:CMB
*  2023 10 10 13 30  0.00000000
PG01  -8520.910697  18422.176326 -17284.031754    163.911773  6  5  6 108       
PG02 -13943.683598  19617.298645 -10524.270348   -543.769495  4  3  3  99       
PG03   2096.885537  16743.709397 -20684.512691    -87.234064  7  2  4  80       
PG04   -871.287603  26433.732816  -1506.860016    180.440400  5  6  3  94       
PG05  13117.036020  -9695.563502  20799.310777   -145.965632  7  7  1  77       
PG06  22473.734187  -3256.343580 -13788.738944    533.586681  8  6  9 105       
PG07   9341.744715  12606.393602  21917.404167     44.193543  4  5  5 101       
PG08  -6363.597615  22928.162487  11292.583332   -146.422803  3  4  3  83       
PG09   6965.892666  24412.965545   7629.710418    -36.379648  6  4  6  99       
PG10 -24274.061291 -10942.701677  -2276.189579    -56.785250  5  5  1  95       
PG11  23644.186534 -11878.331639  -1920.583540   -408.655385 13 10  5 132       
PG12   2030.158184 -16111.147824 -21306.465186   -434.302186  7  4  3 100       
PG13  12986.800776 -15819.203199  16609.703189    582.392151  8  6  6  68       
PG14  22994.729930  13462.687641    704.854416    209.903603  6  5  5  87       
PG15   2880.449650 -24168.005538   9865.179274     85.729734  7  4  4  94       
PG16 -18276.384630   3769.456758  18760.766002   -441.335553  6  5  5  99       
PG17  12753.971718  12671.257665 -19073.111873    723.846920  6  4  4 106       
PG18 -10629.492459 -10855.409856  21808.601779   -444.426184  5  6  6  91       
PG19  14792.459337   3763.873703 -21956.283532    383.039558  6  7  4 105       
PG20  22197.703403  -3437.817688  14067.063629    407.540572  7  6  3  69       
PG21 -16078.929139  18904.164571  -7530.126925    147.086623  6  6  8  88       
PG22  23494.182713  10207.077061  -5977.806099    105.582299  6  5  4  89       
PG23 -18692.050638 -16364.751500   9651.368041     80.570345  6  7  4  83       
PG24  11096.293217 -20464.274850 -12774.882946   -342.394976  5  5  8  99       
PG25 -12144.456449 -18376.590228 -15349.374618    472.028733  6  5  5  83       
PG26 -24262.928956  -1665.247442  10962.974460    224.003547  5  4  5  98       
PG27 -12873.392842  12181.005517  19391.881921    -52.959628  4  5  5  97       
PG28 -21680.953482   1933.789169 -15245.591815    -23.077174  9  8  6  73       
PG29  -4565.901833 -24840.684727   8001.143289   -609.981297  5  4  2 105       
PG30  18203.457936   5026.314223  18897.128651   -479.945604  6  5  6  81       
PG31 -24328.120531   8715.092090  -7213.408672   -224.482989  7  5  4 101       
PG32 -14735.466101  -8040.086086 -20448.969876   -570.654040  5  7  5  70       
*  2023 10 10 13 45  0.00000000
PG01 -10107.338708  19308.094845 -15278.858379    163.911356  6  6  6 100       
PG02 -14966.617606  20140.224132  -7917.808250   -543.765378  5  4  3  90       
PG03    -66.895165  15755.079384 -21545.900690    -87.213863  7  3  5  86       
PG04  -1140.242669  26107.063218  -4349.027691    180.450128  5  7  3  66       
PG05  15250.901410  -8697.212930  19777.658943   -145.966826  7  7  1  88       
PG06  21123.807963  -2210.454448 -15942.756265    533.579297  8  6  9 106       
PG07   7336.009956  13936.766366  21831.017110     44.184780  4  5  5  96       
PG08  -6759.106731  21509.457961  13635.131478   -146.425074  2  4  3  91       
PG09   6776.827248  25163.480950   4901.218653    -36.370050  6  4  7 100       
PG10 -24302.241104 -11149.743393    596.756980    -56.786327  5  5  2 101       
PG11  23442.250292 -11471.761905  -4756.413938   -408.671140 12  9  7 119       
PG12   4141.892411 -14952.214104 -21839.143232   -434.305997  6  4  4  97       
PG13  13005.842942 -13773.815262  18327.572168    582.395776  7  6  6  45       
PG14  22655.344546  13600.701890   3510.403323    209.913646  6  6  5  84       
PG15   3477.149097 -22923.365569  12260.141250     85.733262  7  5  4  98       
PG16 -20016.578126   2591.072897  17183.225316   -441.330360  6  5  5 104       
PG17  12645.387063  14850.314670 -17536.038155    723.847052  6  4  4 107       
PG18  -8541.682138 -12229.069810  21982.589259   -444.436825  5  7  6  92       
PG19  14692.185471   6198.754476 -21491.636127    383.044008  6  7  4 102       
PG20  23557.678711  -2801.910006  11790.156360    407.538973  7  6  3  76       
PG21 -16884.689418  19152.658659  -4738.079838    147.085611  6  7  8  85       
PG22  23851.596784  10736.902727  -3165.706722    105.575706  5  5  4  89       
PG23 -17490.695520 -16017.255025  12147.521920     80.575434  5  7  4  82       
PG24  12282.996673 -21057.028070 -10399.305754   -342.403909  5  6  8  97       
PG25 -10440.183340 -17764.857560 -17223.224722    472.030388  6  6  6  82       
PG26 -25206.445598  -2334.360169   8490.815932    224.001537  5  5  4  95       
PG27 -13174.063541   9854.050956  20503.590565    -52.964897  4  5  5  89       
PG28 -20287.779474    705.962120 -17152.992314    -23.083169  8  8  6  81       
PG29  -4349.648099 -25604.561298   5247.470654   -609.981401  5  4  2 106       
PG30  16440.515001   6358.546751  20059.217826   -479.942362  5  6  5  92       
PG31 -23657.780878   8021.155047  -9808.343771   -224.483659  6  6  5  92       
PG32 -14833.285575 -10347.501596 -19338.313778   -570.658930  5  6  5  89       
*  2023 10 10 14  0  0.00000000
PG01 -11451.307349  20139.068515 -13012.419200    163.910905  7  7  6 103       
PG02 -15730.027326  20510.239687  -5171.147694   -543.761121  5  5  3 109       
PG03  -2353.675662  14859.301186 -22041.996278    -87.193672  6  5  5  95       
PG04  -1457.130812  25477.811084  -7115.759717    180.459897  5  7  4  86       
PG05  17304.886381  -7859.726789  18411.260788   -145.968175  7  7     84       
PG06  19652.211044   -950.544473 -17822.308329    533.571955  8  5  9  99       
PG07   5421.054470  15354.115721  21383.782888     44.175305  4  5  5  94       
PG08  -7265.873697  19862.987256  15737.354478   -146.427065  2  4  3 101       
PG09   6578.357795  25611.972071   2087.948624    -36.360447  6  4  7  92       
PG10 -24043.744444 -11231.693786   3459.660498    -56.787314  5  5  2 104       
PG11  23001.760964 -10873.930475  -7510.084894   -408.686909 12  9  9  99       
PG12   6347.862053 -13890.332667 -22005.580720   -434.309916  6  5  4  93       
PG13  13131.885063 -11554.433025  19722.785925    582.400308  6  7  6  44       
PG14  22038.096320  13628.247551   6256.182624    209.923671  6  6  5  87       
PG15   4204.926614 -21454.228121  14435.971698     85.736595  8  6  4  90       
PG16 -21638.567240   1599.865449  15308.192981   -441.325015  6  5  5 110       
PG17  12638.649518  16835.200447 -15685.638628    723.847239  6  3  4 101       
PG18  -6531.457530 -13714.128499  21778.576518   -444.447478  5  7  6  96       
PG19  14722.907745   8560.489549 -20665.441630    383.048626  6  7  4 107       
PG20  24685.174206  -2292.898613   9308.776991    407.537172  7  7  3  88       
PG21 -17431.138040  19219.336453  -1858.758148    147.084873  6  8  9 108       
PG22  23948.841266  11093.536891   -297.751475    105.569377  5  5  5  98       
PG23 -16018.554232 -15641.047662  14436.630266     80.580597  5  7  4  91       
PG24  13240.350297 -21516.098636  -7843.633734   -342.412854  5  7  7  89       
PG25  -8527.572589 -17171.155001 -18810.339875    472.032063  6  6  6  87       
PG26 -25909.735121  -2865.698686   5874.786298    223.999511  5  5  4  95       
PG27 -13608.762997   7442.717308  21251.456725    -52.970176  4  6  4  92       
PG28 -18807.387269   -719.828649 -18765.761360    -23.089118  8  8  6  92       
PG29  -4156.811059 -26061.050827   2402.825085   -609.981214  5  4  2 102       
PG30  14654.760479   7843.561864  20881.659791   -479.939098  4  6  5  88       
PG31 -22798.381857   7127.192408 -12239.632246   -224.484469  5  6  5 103       
PG32 -15030.096379 -12500.148716 -17891.769205   -570.663810  6  6  5  88       
EOF
